{
  "norad_id": 63869,
  "name": "STARLINK-34006",
  "history": [
    {
      "epoch": "2026-03-28T16:57:33.027264Z",
      "apogee_km": 574.3609117613132,
      "perigee_km": 569.7361193155648,
      "latitude_deg": 1.6921285998072514e-05,
      "longitude_deg": 105.92066813630363,
      "height_km": 574.5095035007149,
      "semi_major_axis_km": 6950.185515538439,
      "eccentricity": 0.00033271,
      "inclination_deg": 70.002,
      "raan_deg": 186.4315,
      "arg_perigee_deg": 269.1806,
      "mean_anomaly_deg": 90.8972,
      "mean_motion_rev_day": 14.98332385
    },
    {
      "epoch": "2026-03-28T23:22:05.381760Z",
      "apogee_km": 574.348146155854,
      "perigee_km": 569.7568509731027,
      "latitude_deg": -5.2360509905690066e-05,
      "longitude_deg": 8.84902479806032,
      "height_km": 574.4548641025765,
      "semi_major_axis_km": 6950.1894985644785,
      "eccentricity": 0.0003303,
      "inclination_deg": 70.0021,
      "raan_deg": 185.7579,
      "arg_perigee_deg": 270.6373,
      "mean_anomaly_deg": 89.4407,
      "mean_motion_rev_day": 14.98331097
    },
    {
      "epoch": "2026-03-29T23:24:06.291648Z",
      "apogee_km": 574.2678132783676,
      "perigee_km": 569.8141392311827,
      "latitude_deg": 1.0850284980599707e-05,
      "longitude_deg": 4.833932653828769,
      "height_km": 574.4662429166145,
      "semi_major_axis_km": 6950.177976254775,
      "eccentricity": 0.0003204,
      "inclination_deg": 70.0025,
      "raan_deg": 183.2336,
      "arg_perigee_deg": 270.0661,
      "mean_anomaly_deg": 90.0131,
      "mean_motion_rev_day": 14.98334823
    },
    {
      "epoch": "2026-03-30T05:48:22.135968Z",
      "apogee_km": 577.5406247719484,
      "perigee_km": 563.6187319325363,
      "latitude_deg": -4.2262435545050305e-05,
      "longitude_deg": -92.16882368828105,
      "height_km": 572.4175058259078,
      "semi_major_axis_km": 6948.716678352242,
      "eccentricity": 0.00100176,
      "inclination_deg": 70.0027,
      "raan_deg": 182.5599,
      "arg_perigee_deg": 274.8932,
      "mean_anomaly_deg": 85.1083,
      "mean_motion_rev_day": 14.98807492
    },
    {
      "epoch": "2026-03-30T14:00:03.000384Z",
      "apogee_km": 574.3429540011894,
      "perigee_km": 569.8332309476864,
      "latitude_deg": 37.520857509433704,
      "longitude_deg": 159.8503382369841,
      "height_km": 578.0920062889248,
      "semi_major_axis_km": 6950.225092474438,
      "eccentricity": 0.00032443,
      "inclination_deg": 70.0023,
      "raan_deg": 181.6989,
      "arg_perigee_deg": 272.2662,
      "mean_anomaly_deg": 128.0031,
      "mean_motion_rev_day": 14.98319587
    },
    {
      "epoch": "2026-03-30T16:00:01.999584Z",
      "apogee_km": 574.4096891768486,
      "perigee_km": 569.8268298638259,
      "latitude_deg": 46.539654024041596,
      "longitude_deg": -89.02817653955135,
      "height_km": 580.5346535953854,
      "semi_major_axis_km": 6950.255259520337,
      "eccentricity": 0.00032969,
      "inclination_deg": 70.0022,
      "raan_deg": 181.4889,
      "arg_perigee_deg": 272.8963,
      "mean_anomaly_deg": 216.6834,
      "mean_motion_rev_day": 14.98309832
    },
    {
      "epoch": "2026-03-31T09:02:55.804128Z",
      "apogee_km": 574.2051682282436,
      "perigee_km": 569.8843792231528,
      "latitude_deg": 9.959253716618025e-06,
      "longitude_deg": -144.78830472455206,
      "height_km": 574.5056977168908,
      "semi_major_axis_km": 6950.181773725698,
      "eccentricity": 0.00031084,
      "inclination_deg": 70.0032,
      "raan_deg": 179.6995,
      "arg_perigee_deg": 269.1214,
      "mean_anomaly_deg": 90.9589,
      "mean_motion_rev_day": 14.98333595
    },
    {
      "epoch": "2026-04-01T09:04:56.671680Z",
      "apogee_km": 574.3060361638272,
      "perigee_km": 569.7759101609208,
      "latitude_deg": 3.3329929470323406e-05,
      "longitude_deg": -148.80433354942593,
      "height_km": 574.5083540963883,
      "semi_major_axis_km": 6950.177973162374,
      "eccentricity": 0.0003259,
      "inclination_deg": 70.0023,
      "raan_deg": 177.1741,
      "arg_perigee_deg": 269.0007,
      "mean_anomaly_deg": 91.0779,
      "mean_motion_rev_day": 14.98334824
    }
  ]
}